KUIPER-00622            
1 69779U 26151S   26202.49658959  .00019980  00000+0  55201-3 0  9992
2 69779  51.8739 149.9713 0006158 167.2926 192.8217 15.37024267  2986
KUIPER-00623            
1 69780U 26151T   26202.55581064  .00031937  00000+0  86233-3 0  9998
2 69780  51.8780 149.6201 0004917 151.6612 208.4643 15.37468598  2990
KUIPER-00626            
1 69781U 26151U   26202.31871395 -.00012175  00000+0 -34644-3 0  9996
2 69781  51.8725 151.0200 0009977 185.7704 174.3168 15.34597724  2957
KUIPER-00627            
1 69782U 26151V   26202.32152931  .00012599  00000+0  38318-3 0  9996
2 69782  51.8699 151.0352 0010707 192.0125 168.0607 15.34349774  2955
KUIPER-00629            
1 69783U 26151W   26202.58335648 -.00902218  00000+0 -35875-1 0  9994
2 69783  51.8811 149.8628 0006358 182.6915 165.1872 15.27623198  3323
KUIPER-00631            
1 69784U 26151X   26202.58335648 -.00021111  00000+0 -75976-3 0  9997
2 69784  51.8771 149.8240 0007895 180.9209 174.5748 15.27602061  1301
KUIPER-00634            
1 69785U 26151Y   26202.55214624  .00023728  00000+0  63630-3 0  9993
2 69785  51.8771 149.5972 0003307 155.4161 204.6984 15.37850339  2996
KUIPER-00639            
1 69786U 26151Z   26202.58335648 -.00001320  00000+0 -27503-4 0  9993
2 69786  51.8696 149.7081 0009777 181.2872 218.7850 15.34528736  2166
KUIPER-00641            
1 69787U 26151AA  26202.32326796  .00014827  00000+0  45118-3 0  9995
2 69787  51.8684 151.0445 0011888 185.4585 174.6273 15.34169016  2955
KUIPER-00644            
1 69788U 26151AB  26202.56732169  .00012298  00000+0  34892-3 0  9994
2 69788  51.8743 149.6921 0008128 180.7995 179.2979 15.36586355  2988
KUIPER-00646            
1 69789U 26151AC  26202.31340634  .00010480  00000+0  31162-3 0  9998
2 69789  51.8706 150.9852 0008570 186.9543 173.1326 15.35280313  2954
KUIPER-00647            
1 69790U 26151AD  26202.57993172  .00018625  00000+0  55497-3 0  9995
2 69790  51.8676 149.7635 0010883 188.7895 171.2901 15.34665351  2997
KUIPER-00662            
1 69791U 26151AE  26202.43724581  .00021768  00000+0  60854-3 0  9992
2 69791  51.8738 150.3199 0008211 180.3053 179.7929 15.36586365  2976
LINK                    
1 69792U 26152A   26202.48382856  .00104063  00000+0  87541-3 0  9996
2 69792  20.5930 278.9369 0023518  85.5169 274.7964 15.67728585  2848
2026-152B               
1 69793U 26152B   26202.44017697  .00045752  00000+0  42447-3 0  9996
2 69793  20.5974 279.6496 0023146  78.8985 281.4063 15.65232688  2830
ISS OBJECT YJ           
1 69794U 98067YJ  26202.11018645  .00025751  00000+0  45293-3 0  9998
2 69794  51.6311 132.0929 0007702 332.1900  27.8676 15.50272623  2915
ISS OBJECT YK           
1 69795U 98067YK  26202.16791032  .00046897  00000+0  79149-3 0  9993
2 69795  51.6310 131.7291 0006420 339.2892  20.7837 15.51146588  2920
ISS OBJECT YL           
1 69796U 98067YL  26202.04107823  .00035078  00000+0  60183-3 0  9997
2 69796  51.6316 132.3817 0008569 332.9742  27.0800 15.50801962  2897
ISS OBJECT YM           
1 69797U 98067YM  26201.07401881  .00050643  00000+0  86101-3 0  9994
2 69797  51.6311 137.1739 0009481 319.6197  40.4088 15.50880460  2739
ISS OBJECT YN           
1 69798U 98067YN  26202.04231591  .00022758  00000+0  39749-3 0  9994
2 69798  51.6319 132.3898 0009125 335.9820  24.0743 15.50534749  2901
PROVES-ELECTRA          
1 69799U 98067YP  26202.04062026  .00034737  00000+0  59516-3 0  9994
2 69799  51.6320 132.3775 0009633 324.7588  35.2763 15.50834784  2895
QIANFAN-201             
1 69800U 26153A   26202.56584209  .00000082  00000+0  30627-4 0  9992
2 69800  88.9929 358.3138 0008465 156.7847 203.3729 14.22094735  2456
QIANFAN-202             
1 69801U 26153B   26202.59818625 -.01651600  00000+0 -94037+0 0  9999
2 69801  88.9925 358.3189 0010985 156.5397 203.6293 14.13737843  2450
QIANFAN-203             
1 69802U 26153C   26202.58984703  .00000194  00000+0  85328-4 0  9991
2 69802  88.9929 358.3174 0008017 157.8851 202.2686 14.19389532  2456
QIANFAN-204             
1 69803U 26153D   26202.59102825 -.01636393  00000+0 -91010+0 0  9999
2 69803  88.9925 358.3178 0010944 169.3831 190.7590 14.14974129  2457
QIANFAN-205             
1 69804U 26153E   26202.59183403 -.02274331  00000+0 -12523+1 0  9995
2 69804  88.9876 358.3128 0020118 167.7571 192.4110 14.16155888  2457
QIANFAN-206             
1 69805U 26153F   26202.50588654  .00000077  00000+0  30217-4 0  9998
2 69805  88.9925 358.3227 0008532 158.2273 201.9281 14.18783662  2446
QIANFAN-207             
1 69806U 26153G   26202.64353813 -.02100939  00000+0 -11325+1 0  9998
2 69806  88.9877 358.3056 0015515 163.7371 196.4319 14.16988320  2460
QIANFAN-208             
1 69807U 26153H   26202.63518300 -.02000903  00000+0 -10216+1 0  9990
2 69807  88.9924 358.3058 0008337 177.1377 182.9862 14.19736691  2463
QIANFAN-209             
1 69808U 26153J   26202.57835183  .00000077  00000+0  29535-4 0  9991
2 69808  88.9930 358.3159 0008366 156.0727 204.0854 14.19691125  2458
