OBJECT_NAME,OBJECT_ID,EPOCH,MEAN_MOTION,ECCENTRICITY,INCLINATION,RA_OF_ASC_NODE,ARG_OF_PERICENTER,MEAN_ANOMALY,EPHEMERIS_TYPE,CLASSIFICATION_TYPE,NORAD_CAT_ID,ELEMENT_SET_NO,REV_AT_EPOCH,BSTAR,MEAN_MOTION_DOT,MEAN_MOTION_DDOT
KUIPER-00622,2026-151S,2026-07-21T11:55:05.340576,15.37024267,.00061583,51.8739,149.9713,167.2926,192.8217,0,U,69779,999,298,.55201091E-3,.1998E-3,0
KUIPER-00623,2026-151T,2026-07-21T13:20:22.039296,15.37468598,.00049171,51.8780,149.6201,151.6612,208.4643,0,U,69780,999,299,.86233457E-3,.31937E-3,0
KUIPER-00626,2026-151U,2026-07-21T07:38:56.885280,15.34597724,.00099776,51.8725,151.0200,185.7704,174.3168,0,U,69781,999,295,-.3464374E-3,-.12175E-3,0
KUIPER-00627,2026-151V,2026-07-21T07:43:00.132384,15.34349774,.0010707,51.8699,151.0352,192.0125,168.0607,0,U,69782,999,295,.38317959E-3,.12599E-3,0
KUIPER-00629,2026-151W,2026-07-21T14:00:01.999872,15.27623198,.00063581,51.8811,149.8628,182.6915,165.1872,0,U,69783,999,332,-.35875167E-1,-.902218E-2,0
KUIPER-00631,2026-151X,2026-07-21T14:00:01.999872,15.27602061,.00078957,51.8771,149.8240,180.9209,174.5748,0,U,69784,999,130,-.75975807E-3,-.21111E-3,0
KUIPER-00634,2026-151Y,2026-07-21T13:15:05.435136,15.37850339,.0003307,51.8771,149.5972,155.4161,204.6984,0,U,69785,999,299,.63630327E-3,.23728E-3,0
KUIPER-00639,2026-151Z,2026-07-21T14:00:01.999872,15.34528736,.00097775,51.8696,149.7081,181.2872,218.7850,0,U,69786,999,216,-.27503116E-4,-.132E-4,0
KUIPER-00641,2026-151AA,2026-07-21T07:45:30.351744,15.34169016,.00118881,51.8684,151.0445,185.4585,174.6273,0,U,69787,999,295,.45118141E-3,.14827E-3,0
KUIPER-00644,2026-151AB,2026-07-21T13:36:56.594016,15.36586355,.00081285,51.8743,149.6921,180.7995,179.2979,0,U,69788,999,298,.34891806E-3,.12298E-3,0
KUIPER-00646,2026-151AC,2026-07-21T07:31:18.307776,15.35280313,.00085704,51.8706,150.9852,186.9543,173.1326,0,U,69789,999,295,.31161886E-3,.1048E-3,0
KUIPER-00647,2026-151AD,2026-07-21T13:55:06.100608,15.34665351,.00108836,51.8676,149.7635,188.7895,171.2901,0,U,69790,999,299,.5549727E-3,.18625E-3,0
KUIPER-00662,2026-151AE,2026-07-21T10:29:38.037984,15.36586365,.00082119,51.8738,150.3199,180.3053,179.7929,0,U,69791,999,297,.60853961E-3,.21768E-3,0
LINK,2026-152A,2026-07-21T11:36:42.787584,15.67728585,.00235185,20.5930,278.9369,85.5169,274.7964,0,U,69792,999,284,.87541489E-3,.104063E-2,0
2026-152B,2026-152B,2026-07-21T10:33:51.290208,15.65232688,.00231464,20.5974,279.6496,78.8985,281.4063,0,U,69793,999,283,.42446893E-3,.45752E-3,0
ISS OBJECT YJ,1998-067YJ,2026-07-21T02:38:40.109280,15.50272623,.00077029,51.6311,132.0929,332.1900,27.8676,0,U,69794,999,291,.45292602E-3,.25751E-3,0
ISS OBJECT YK,1998-067YK,2026-07-21T04:01:47.451648,15.51146588,.00064202,51.6310,131.7291,339.2892,20.7837,0,U,69795,999,292,.79149375E-3,.46897E-3,0
ISS OBJECT YL,1998-067YL,2026-07-21T00:59:09.159072,15.50801962,.00085693,51.6316,132.3817,332.9742,27.0800,0,U,69796,999,289,.60182886E-3,.35078E-3,0
ISS OBJECT YM,1998-067YM,2026-07-20T01:46:35.225184,15.50880460,.0009481,51.6311,137.1739,319.6197,40.4088,0,U,69797,999,273,.86101476E-3,.50643E-3,0
ISS OBJECT YN,1998-067YN,2026-07-21T01:00:56.094624,15.50534749,.00091257,51.6319,132.3898,335.9820,24.0743,0,U,69798,999,290,.39749283E-3,.22758E-3,0
PROVES-ELECTRA,1998-067YP,2026-07-21T00:58:29.590464,15.50834784,.00096338,51.6320,132.3775,324.7588,35.2763,0,U,69799,999,289,.5951596E-3,.34737E-3,0
QIANFAN-201,2026-153A,2026-07-21T13:34:48.756576,14.22094735,.00084651,88.9929,358.3138,156.7847,203.3729,0,U,69800,999,245,.30626588E-4,.82E-6,0
QIANFAN-202,2026-153B,2026-07-21T14:21:23.292000,14.13737843,.00109856,88.9925,358.3189,156.5397,203.6293,0,U,69801,999,245,-.94037395E+0,-.16516E-1,0
QIANFAN-203,2026-153C,2026-07-21T14:09:22.783392,14.19389532,.00080173,88.9929,358.3174,157.8851,202.2686,0,U,69802,999,245,.85327934E-4,.194E-5,0
QIANFAN-204,2026-153D,2026-07-21T14:11:04.840800,14.14974129,.00109443,88.9925,358.3178,169.3831,190.7590,0,U,69803,999,245,-.91009676E+0,-.1636393E-1,0
QIANFAN-205,2026-153E,2026-07-21T14:12:14.460192,14.16155888,.00201184,88.9876,358.3128,167.7571,192.4110,0,U,69804,999,245,-.12523458E+1,-.2274331E-1,0
QIANFAN-206,2026-153F,2026-07-21T12:08:28.597056,14.18783662,.00085325,88.9925,358.3227,158.2273,201.9281,0,U,69805,999,244,.30217342E-4,.77E-6,0
QIANFAN-207,2026-153G,2026-07-21T15:26:41.694432,14.16988320,.0015515,88.9877,358.3056,163.7371,196.4319,0,U,69806,999,246,-.11325247E+1,-.2100939E-1,0
QIANFAN-208,2026-153H,2026-07-21T15:14:39.811200,14.19736691,.00083372,88.9924,358.3058,177.1377,182.9862,0,U,69807,999,246,-.10216286E+1,-.2000903E-1,0
QIANFAN-209,2026-153J,2026-07-21T13:52:49.598112,14.19691125,.00083664,88.9930,358.3159,156.0727,204.0854,0,U,69808,999,245,.29534803E-4,.77E-6,0
